OBJECT B                
1 51825U 22019B   24124.88536612  .00010318  00000+0  47125-3 0  9991
2 51825  97.4313 196.8003 0015132  40.4246 319.8111 15.20672103120496
